OBJECT_NAME,OBJECT_ID,EPOCH,MEAN_MOTION,ECCENTRICITY,INCLINATION,RA_OF_ASC_NODE,ARG_OF_PERICENTER,MEAN_ANOMALY,EPHEMERIS_TYPE,CLASSIFICATION_TYPE,NORAD_CAT_ID,ELEMENT_SET_NO,REV_AT_EPOCH,BSTAR,MEAN_MOTION_DOT,MEAN_MOTION_DDOT
ONEWEB-0158,2021-025N,2026-06-15T10:51:28.179936,13.13472014,.00015911,87.8959,320.5619,94.6353,265.4958,0,U,48054,999,25340,-.85542624E-3,-.3E-5,0
ONEWEB-0157,2021-025P,2026-06-15T11:28:02.756352,13.13469817,.00020328,87.8956,320.5632,106.3668,253.7685,0,U,48055,999,25334,.17239527E-3,.76E-6,0
ONEWEB-0162,2021-025Q,2026-06-15T10:53:42.305568,13.13470201,.00019888,87.8955,320.5685,94.2533,265.8823,0,U,48056,999,25331,-.6854568E-3,-.238E-5,0
ONEWEB-0155,2021-025R,2026-06-15T11:03:38.894976,13.13470772,.00018046,87.8957,320.5634,101.9359,258.1973,0,U,48057,999,25345,-.66526966E-3,-.23E-5,0
ONEWEB-0149,2021-025S,2026-06-15T11:35:21.289056,13.13470768,.00020165,87.8961,320.5626,93.3528,266.7832,0,U,48058,999,25326,.68177879E-3,.262E-5,0
ONEWEB-0148,2021-025T,2026-06-15T10:41:42.800928,13.13470055,.00024205,87.8953,320.5767,93.4985,266.6421,0,U,48059,999,25338,-.46118625E-3,-.156E-5,0
ONEWEB-0160,2021-025U,2026-06-15T11:06:04.974048,13.13471519,.00014467,87.8951,320.5695,74.0374,286.0915,0,U,48060,999,25333,-.69542908E-3,-.241E-5,0
ONEWEB-0163,2021-025V,2026-06-15T10:44:08.360736,13.13470725,.00019601,87.8959,320.5667,104.3065,255.8282,0,U,48061,999,25345,-.57678915E-3,-.198E-5,0
ONEWEB-0159,2021-025W,2026-06-15T10:31:57.457344,13.13470960,.00019073,87.8963,320.5621,104.0178,256.1163,0,U,48062,999,25337,-.99819648E-4,-.24E-6,0
ONEWEB-0164,2021-025X,2026-06-15T11:54:50.738976,13.13469950,.00017475,87.8962,320.5571,95.3120,264.8209,0,U,48063,999,25336,.10751864E-2,.405E-5,0
ONEWEB-0167,2021-025Y,2026-06-15T10:45:21.005856,13.13468345,.00016622,87.8952,320.5766,118.0214,242.1083,0,U,48064,999,25334,-.63600315E-3,-.219E-5,0
ONEWEB-0166,2021-025Z,2026-06-15T11:18:15.512832,13.13471119,.00020241,87.8962,320.5435,96.4927,263.6433,0,U,48065,999,25342,-.60875975E-3,-.21E-5,0
ONEWEB-0151,2021-025AA,2026-06-15T13:10:24.204864,13.13470860,.00017395,87.8953,320.5447,100.0368,260.0957,0,U,48066,999,25337,-.12695273E-3,-.34E-6,0
ONEWEB-0170,2021-025AB,2026-06-15T11:32:54.260448,13.13470501,.00013602,87.8955,320.5603,94.7588,265.3696,0,U,48067,999,25332,.43045309E-3,.17E-5,0
ONEWEB-0168,2021-025AC,2026-06-15T11:10:57.590976,13.13470482,.00019603,87.8961,320.5631,100.5655,259.5695,0,U,48068,999,25333,-.44457724E-3,-.15E-5,0
ONEWEB-0173,2021-025AD,2026-06-15T10:58:46.318656,13.13470579,.00018955,87.8955,320.5665,107.9493,252.1843,0,U,48069,999,25357,-.8529144E-3,-.299E-5,0
ONEWEB-0171,2021-025AE,2026-06-15T11:52:24.581280,13.13470739,.0001714,87.8952,320.5673,97.6912,262.4411,0,U,48070,999,25339,.99978757E-3,.378E-5,0
ONEWEB-0172,2021-025AF,2026-06-15T11:23:08.457216,13.13472065,.00017851,87.8957,320.5611,102.1064,258.0265,0,U,48071,999,25428,.14287837E-3,.65E-6,0
ONEWEB-0174,2021-025AG,2026-06-15T10:56:20.582592,13.13470831,.00019897,87.8958,320.5645,96.7020,263.4336,0,U,48072,999,25360,-.71712859E-3,-.249E-5,0
ONEWEB-0175,2021-025AH,2026-06-15T11:40:13.483488,13.13470813,.00014932,87.8962,320.5424,101.5665,258.5632,0,U,48073,999,25326,.61468941E-3,.237E-5,0
ONEWEB-0177,2021-025AJ,2026-06-15T11:57:16.806816,13.13470722,.00020064,87.8959,320.5584,100.2764,259.8592,0,U,48074,999,25345,.88836177E-3,.337E-5,0
ONEWEB-0178,2021-025AK,2026-06-15T10:34:35.071680,13.13468019,.00017095,87.8945,320.5825,104.7860,255.3458,0,U,48075,999,25349,-.28609691E-3,-.92E-6,0
ONEWEB-0108,2021-025AL,2026-06-15T11:25:35.455584,13.13471114,.00019114,87.8961,320.5541,90.0148,270.1200,0,U,48076,999,25342,.33226266E-3,.134E-5,0
ONEWEB-0169,2021-025AM,2026-06-15T10:22:12.700416,13.13469932,.000194,87.8955,320.5709,96.3039,263.8312,0,U,48077,999,25207,.34395969E-3,.138E-5,0
ONEWEB-0176,2021-031A,2026-06-15T13:55:56.837280,13.14503159,.00018756,87.8966,290.0194,103.6705,256.4634,0,U,48210,999,24810,-.4756672E-5,.11E-6,0
ONEWEB-0184,2021-031B,2026-06-15T07:48:17.651520,13.14503196,.00014754,87.8969,290.0710,124.6617,235.4652,0,U,48211,999,24804,.50486142E-3,.2E-5,0
ONEWEB-0179,2021-031C,2026-06-15T09:50:46.578912,14.25522414,.02186758,87.8988,287.4002,263.0645,94.5631,0,U,48212,999,24879,.7031574E-4,.23E-5,0
ONEWEB-0180,2021-031D,2026-06-15T07:52:51.962016,13.14503208,.00021719,87.8965,290.0665,112.1804,247.9556,0,U,48213,999,24797,.73798025E-3,.286E-5,0
ONEWEB-0218,2021-031E,2026-06-15T13:53:39.796512,13.14502366,.00017881,87.8974,290.0157,128.3423,231.7867,0,U,48214,999,24816,.29255657E-3,.121E-5,0
ONEWEB-0209,2021-031F,2026-06-15T13:37:39.908928,13.14501181,.00021321,87.8962,290.0351,104.2501,255.8865,0,U,48215,999,24816,.52637108E-3,.208E-5,0
