ONEWEB-0158             
1 48054U 21025N   26166.45240949 -.00000300  00000+0 -85543-3 0  9991
2 48054  87.8959 320.5619 0001591  94.6353 265.4958 13.13472014253400
ONEWEB-0157             
1 48055U 21025P   26166.47780968  .00000076  00000+0  17240-3 0  9991
2 48055  87.8956 320.5632 0002032 106.3668 253.7685 13.13469817253341
ONEWEB-0162             
1 48056U 21025Q   26166.45396187 -.00000238  00000+0 -68546-3 0  9993
2 48056  87.8955 320.5685 0001988  94.2533 265.8823 13.13470201253318
ONEWEB-0155             
1 48057U 21025R   26166.46086684 -.00000230  00000+0 -66527-3 0  9992
2 48057  87.8957 320.5634 0001804 101.9359 258.1973 13.13470772253453
ONEWEB-0149             
1 48058U 21025S   26166.48288529  .00000262  00000+0  68178-3 0  9994
2 48058  87.8961 320.5626 0002016  93.3528 266.7832 13.13470768253261
ONEWEB-0148             
1 48059U 21025T   26166.44563427 -.00000156  00000+0 -46119-3 0  9999
2 48059  87.8953 320.5767 0002420  93.4985 266.6421 13.13470055253381
ONEWEB-0160             
1 48060U 21025U   26166.46255757 -.00000241  00000+0 -69543-3 0  9998
2 48060  87.8951 320.5695 0001446  74.0374 286.0915 13.13471519253330
ONEWEB-0163             
1 48061U 21025V   26166.44731899 -.00000198  00000+0 -57679-3 0  9991
2 48061  87.8959 320.5667 0001960 104.3065 255.8282 13.13470725253455
ONEWEB-0159             
1 48062U 21025W   26166.43885946 -.00000024  00000+0 -99820-4 0  9997
2 48062  87.8963 320.5621 0001907 104.0178 256.1163 13.13470960253378
ONEWEB-0164             
1 48063U 21025X   26166.49642059  .00000405  00000+0  10752-2 0  9996
2 48063  87.8962 320.5571 0001747  95.3120 264.8209 13.13469950253366
ONEWEB-0167             
1 48064U 21025Y   26166.44815979 -.00000219  00000+0 -63600-3 0  9991
2 48064  87.8952 320.5766 0001662 118.0214 242.1083 13.13468345253349
ONEWEB-0166             
1 48065U 21025Z   26166.47101288 -.00000210  00000+0 -60876-3 0  9999
2 48065  87.8962 320.5435 0002024  96.4927 263.6433 13.13471119253426
ONEWEB-0151             
1 48066U 21025AA  26166.54889126 -.00000034  00000+0 -12695-3 0  9992
2 48066  87.8953 320.5447 0001739 100.0368 260.0957 13.13470860253371
ONEWEB-0170             
1 48067U 21025AB  26166.48118357  .00000170  00000+0  43045-3 0  9999
2 48067  87.8955 320.5603 0001360  94.7588 265.3696 13.13470501253326
ONEWEB-0168             
1 48068U 21025AC  26166.46594434 -.00000150  00000+0 -44458-3 0  9991
2 48068  87.8961 320.5631 0001960 100.5655 259.5695 13.13470482253335
ONEWEB-0173             
1 48069U 21025AD  26166.45748054 -.00000299  00000+0 -85291-3 0  9994
2 48069  87.8955 320.5665 0001895 107.9493 252.1843 13.13470579253571
ONEWEB-0171             
1 48070U 21025AE  26166.49472895  .00000378  00000+0  99979-3 0  9991
2 48070  87.8952 320.5673 0001714  97.6912 262.4411 13.13470739253393
ONEWEB-0172             
1 48071U 21025AF  26166.47440344  .00000065  00000+0  14288-3 0  9997
2 48071  87.8957 320.5611 0001785 102.1064 258.0265 13.13472065254280
ONEWEB-0174             
1 48072U 21025AG  26166.45579378 -.00000249  00000+0 -71713-3 0  9998
2 48072  87.8958 320.5645 0001989  96.7020 263.4336 13.13470831253608
ONEWEB-0175             
1 48073U 21025AH  26166.48626717  .00000237  00000+0  61469-3 0  9994
2 48073  87.8962 320.5424 0001493 101.5665 258.5632 13.13470813253265
ONEWEB-0177             
1 48074U 21025AJ  26166.49811119  .00000337  00000+0  88836-3 0  9996
2 48074  87.8959 320.5584 0002006 100.2764 259.8592 13.13470722253455
ONEWEB-0178             
1 48075U 21025AK  26166.44068370 -.00000092  00000+0 -28610-3 0  9999
2 48075  87.8945 320.5825 0001709 104.7860 255.3458 13.13468019253496
ONEWEB-0108             
1 48076U 21025AL  26166.47610481  .00000134  00000+0  33226-3 0  9993
2 48076  87.8961 320.5541 0001911  90.0148 270.1200 13.13471114253424
ONEWEB-0169             
1 48077U 21025AM  26166.43209144  .00000138  00000+0  34396-3 0  9993
2 48077  87.8955 320.5709 0001940  96.3039 263.8312 13.13469932252072
ONEWEB-0176             
1 48210U 21031A   26166.58051895  .00000011  00000+0 -47567-5 0  9990
2 48210  87.8966 290.0194 0001875 103.6705 256.4634 13.14503159248106
ONEWEB-0184             
1 48211U 21031B   26166.32520430  .00000200  00000+0  50486-3 0  9990
2 48211  87.8969 290.0710 0001475 124.6617 235.4652 13.14503196248046
ONEWEB-0179             
1 48212U 21031C   26166.41026133  .00000230  00000+0  70316-4 0  9990
2 48212  87.8988 287.4002 0218675 263.0645  94.5631 14.25522414248793
ONEWEB-0180             
1 48213U 21031D   26166.32837919  .00000286  00000+0  73798-3 0  9990
2 48213  87.8965 290.0665 0002171 112.1804 247.9556 13.14503208247973
ONEWEB-0218             
1 48214U 21031E   26166.57893283  .00000121  00000+0  29256-3 0  9992
2 48214  87.8974 290.0157 0001788 128.3423 231.7867 13.14502366248161
ONEWEB-0209             
1 48215U 21031F   26166.56782302  .00000208  00000+0  52637-3 0  9996
2 48215  87.8962 290.0351 0002132 104.2501 255.8865 13.14501181248168
